[{"OBJECT_NAME":"ISS (ZARYA)","OBJECT_ID":"1998-067A","EPOCH":"2026-04-14T03:13:55.563168","MEAN_MOTION":15.48905907,"ECCENTRICITY":0.00065556,"INCLINATION":51.6322,"RA_OF_ASC_NODE":257.0967,"ARG_OF_PERICENTER":310.1862,"MEAN_ANOMALY":49.8552,"EPHEMERIS_TYPE":0,"CLASSIFICATION_TYPE":"U","NORAD_CAT_ID":25544,"ELEMENT_SET_NO":999,"REV_AT_EPOCH":56182,"BSTAR":0.00010597226,"MEAN_MOTION_DOT":5.375e-5,"MEAN_MOTION_DDOT":0},{"OBJECT_NAME":"POISK","OBJECT_ID":"2009-060A","EPOCH":"2026-04-14T03:13:55.563168","MEAN_MOTION":15.48905907,"ECCENTRICITY":0.00065556,"INCLINATION":51.6322,"RA_OF_ASC_NODE":257.0967,"ARG_OF_PERICENTER":310.1862,"MEAN_ANOMALY":49.8552,"EPHEMERIS_TYPE":0,"CLASSIFICATION_TYPE":"U","NORAD_CAT_ID":36086,"ELEMENT_SET_NO":999,"REV_AT_EPOCH":56149,"BSTAR":0.00010597226,"MEAN_MOTION_DOT":5.375e-5,"MEAN_MOTION_DDOT":0},{"OBJECT_NAME":"CSS (TIANHE)","OBJECT_ID":"2021-035A","EPOCH":"2026-04-14T03:31:26.666688","MEAN_MOTION":15.62370155,"ECCENTRICITY":0.00054524,"INCLINATION":41.4686,"RA_OF_ASC_NODE":352.1325,"ARG_OF_PERICENTER":204.5875,"MEAN_ANOMALY":155.4705,"EPHEMERIS_TYPE":0,"CLASSIFICATION_TYPE":"U","NORAD_CAT_ID":48274,"ELEMENT_SET_NO":999,"REV_AT_EPOCH":28315,"BSTAR":0.00017867682,"MEAN_MOTION_DOT":0.00015982,"MEAN_MOTION_DDOT":0},{"OBJECT_NAME":"ISS (NAUKA)","OBJECT_ID":"2021-066A","EPOCH":"2026-04-14T03:13:55.563168","MEAN_MOTION":15.48905907,"ECCENTRICITY":0.00065556,"INCLINATION":51.6322,"RA_OF_ASC_NODE":257.0967,"ARG_OF_PERICENTER":310.1862,"MEAN_ANOMALY":49.8552,"EPHEMERIS_TYPE":0,"CLASSIFICATION_TYPE":"U","NORAD_CAT_ID":49044,"ELEMENT_SET_NO":999,"REV_AT_EPOCH":56153,"BSTAR":0.00010597226,"MEAN_MOTION_DOT":5.375e-5,"MEAN_MOTION_DDOT":0},{"OBJECT_NAME":"FREGAT DEB","OBJECT_ID":"2011-037PF","EPOCH":"2026-04-14T06:58:38.323776","MEAN_MOTION":12.40989563,"ECCENTRICITY":0.09482387,"INCLINATION":51.6418,"RA_OF_ASC_NODE":193.8365,"ARG_OF_PERICENTER":141.0354,"MEAN_ANOMALY":226.2877,"EPHEMERIS_TYPE":0,"CLASSIFICATION_TYPE":"U","NORAD_CAT_ID":49271,"ELEMENT_SET_NO":999,"REV_AT_EPOCH":21711,"BSTAR":9.4243501e-5,"MEAN_MOTION_DOT":-4.1e-7,"MEAN_MOTION_DDOT":0},{"OBJECT_NAME":"CSS (WENTIAN)","OBJECT_ID":"2022-085A","EPOCH":"2026-04-14T03:31:26.666688","MEAN_MOTION":15.62370155,"ECCENTRICITY":0.00054524,"INCLINATION":41.4686,"RA_OF_ASC_NODE":352.1325,"ARG_OF_PERICENTER":204.5875,"MEAN_ANOMALY":155.4705,"EPHEMERIS_TYPE":0,"CLASSIFICATION_TYPE":"U","NORAD_CAT_ID":53239,"ELEMENT_SET_NO":999,"REV_AT_EPOCH":28313,"BSTAR":0.00017867682,"MEAN_MOTION_DOT":0.00015982,"MEAN_MOTION_DDOT":0},{"OBJECT_NAME":"CSS (MENGTIAN)","OBJECT_ID":"2022-143A","EPOCH":"2026-04-14T03:31:26.666688","MEAN_MOTION":15.62370155,"ECCENTRICITY":0.00054524,"INCLINATION":41.4686,"RA_OF_ASC_NODE":352.1325,"ARG_OF_PERICENTER":204.5875,"MEAN_ANOMALY":155.4705,"EPHEMERIS_TYPE":0,"CLASSIFICATION_TYPE":"U","NORAD_CAT_ID":54216,"ELEMENT_SET_NO":999,"REV_AT_EPOCH":28367,"BSTAR":0.00017867682,"MEAN_MOTION_DOT":0.00015982,"MEAN_MOTION_DDOT":0},{"OBJECT_NAME":"TIANZHOU-9","OBJECT_ID":"2025-149A","EPOCH":"2026-04-14T03:31:26.666688","MEAN_MOTION":15.62370155,"ECCENTRICITY":0.00054524,"INCLINATION":41.4686,"RA_OF_ASC_NODE":352.1325,"ARG_OF_PERICENTER":204.5875,"MEAN_ANOMALY":155.4705,"EPHEMERIS_TYPE":0,"CLASSIFICATION_TYPE":"U","NORAD_CAT_ID":64786,"ELEMENT_SET_NO":999,"REV_AT_EPOCH":28367,"BSTAR":0.00017867682,"MEAN_MOTION_DOT":0.00015982,"MEAN_MOTION_DDOT":0},{"OBJECT_NAME":"PROGRESS-MS 32","OBJECT_ID":"2025-204A","EPOCH":"2026-04-14T03:13:55.563168","MEAN_MOTION":15.48905907,"ECCENTRICITY":0.00065556,"INCLINATION":51.6322,"RA_OF_ASC_NODE":257.0967,"ARG_OF_PERICENTER":310.1862,"MEAN_ANOMALY":49.8552,"EPHEMERIS_TYPE":0,"CLASSIFICATION_TYPE":"U","NORAD_CAT_ID":65586,"ELEMENT_SET_NO":999,"REV_AT_EPOCH":55450,"BSTAR":0.00010597226,"MEAN_MOTION_DOT":5.375e-5,"MEAN_MOTION_DDOT":0},{"OBJECT_NAME":"YOTSUBA-KULOVER","OBJECT_ID":"1998-067XN","EPOCH":"2026-04-13T17:08:29.469408","MEAN_MOTION":16.17122774,"ECCENTRICITY":0.0012415,"INCLINATION":51.6094,"RA_OF_ASC_NODE":232.2957,"ARG_OF_PERICENTER":317.4064,"MEAN_ANOMALY":42.5989,"EPHEMERIS_TYPE":0,"CLASSIFICATION_TYPE":"U","NORAD_CAT_ID":65941,"ELEMENT_SET_NO":999,"REV_AT_EPOCH":2908,"BSTAR":0.0009792,"MEAN_MOTION_DOT":0.01589453,"MEAN_MOTION_DDOT":1.1783e-5},{"OBJECT_NAME":"BOTAN","OBJECT_ID":"1998-067XQ","EPOCH":"2026-04-13T17:55:31.166400","MEAN_MOTION":16.11693379,"ECCENTRICITY":0.0012024,"INCLINATION":51.6132,"RA_OF_ASC_NODE":232.5563,"ARG_OF_PERICENTER":317.4652,"MEAN_ANOMALY":42.543,"EPHEMERIS_TYPE":0,"CLASSIFICATION_TYPE":"U","NORAD_CAT_ID":65943,"ELEMENT_SET_NO":999,"REV_AT_EPOCH":2908,"BSTAR":0.00096886,"MEAN_MOTION_DOT":0.01053607,"MEAN_MOTION_DDOT":0.00069372},{"OBJECT_NAME":"HRC MONOBLOCK CAMERA","OBJECT_ID":"1998-067XR","EPOCH":"2026-04-14T02:16:07.336704","MEAN_MOTION":15.66226261,"ECCENTRICITY":0.00040134,"INCLINATION":51.6254,"RA_OF_ASC_NODE":246.3175,"ARG_OF_PERICENTER":276.7502,"MEAN_ANOMALY":83.3037,"EPHEMERIS_TYPE":0,"CLASSIFICATION_TYPE":"U","NORAD_CAT_ID":66052,"ELEMENT_SET_NO":999,"REV_AT_EPOCH":2793,"BSTAR":0.00036683613,"MEAN_MOTION_DOT":0.00038232,"MEAN_MOTION_DDOT":0},{"OBJECT_NAME":"HTV-X1","OBJECT_ID":"2025-241A","EPOCH":"2026-04-13T14:28:19.798752","MEAN_MOTION":15.3263445,"ECCENTRICITY":0.000746,"INCLINATION":51.6352,"RA_OF_ASC_NODE":264.7214,"ARG_OF_PERICENTER":308.5367,"MEAN_ANOMALY":51.4945,"EPHEMERIS_TYPE":0,"CLASSIFICATION_TYPE":"U","NORAD_CAT_ID":66174,"ELEMENT_SET_NO":999,"REV_AT_EPOCH":2629,"BSTAR":0.00012725,"MEAN_MOTION_DOT":3.702e-5,"MEAN_MOTION_DDOT":0},{"OBJECT_NAME":"SZ-21 MODULE","OBJECT_ID":"2025-246C","EPOCH":"2026-04-13T16:16:31.677024","MEAN_MOTION":15.71400343,"ECCENTRICITY":0.0004429,"INCLINATION":41.4754,"RA_OF_ASC_NODE":347.5224,"ARG_OF_PERICENTER":266.9683,"MEAN_ANOMALY":93.0653,"EPHEMERIS_TYPE":0,"CLASSIFICATION_TYPE":"U","NORAD_CAT_ID":66515,"ELEMENT_SET_NO":999,"REV_AT_EPOCH":2357,"BSTAR":0.00019523,"MEAN_MOTION_DOT":0.00025378,"MEAN_MOTION_DDOT":0},{"OBJECT_NAME":"SHENZHOU-22","OBJECT_ID":"2025-272A","EPOCH":"2026-04-14T03:31:26.666688","MEAN_MOTION":15.62370155,"ECCENTRICITY":0.00054524,"INCLINATION":41.4686,"RA_OF_ASC_NODE":352.1325,"ARG_OF_PERICENTER":204.5875,"MEAN_ANOMALY":155.4705,"EPHEMERIS_TYPE":0,"CLASSIFICATION_TYPE":"U","NORAD_CAT_ID":66645,"ELEMENT_SET_NO":999,"REV_AT_EPOCH":28367,"BSTAR":0.00017867682,"MEAN_MOTION_DOT":0.00015982,"MEAN_MOTION_DDOT":0},{"OBJECT_NAME":"SOYUZ-MS 28","OBJECT_ID":"2025-275A","EPOCH":"2026-04-14T03:13:55.563168","MEAN_MOTION":15.48905907,"ECCENTRICITY":0.00065556,"INCLINATION":51.6322,"RA_OF_ASC_NODE":257.0967,"ARG_OF_PERICENTER":310.1862,"MEAN_ANOMALY":49.8552,"EPHEMERIS_TYPE":0,"CLASSIFICATION_TYPE":"U","NORAD_CAT_ID":66664,"ELEMENT_SET_NO":999,"REV_AT_EPOCH":56177,"BSTAR":0.00010597226,"MEAN_MOTION_DOT":5.375e-5,"MEAN_MOTION_DDOT":0}]
