ISS (ZARYA)             
1 25544U 98067A   26104.13467087  .00005375  00000+0  10597-3 0  9993
2 25544  51.6322 257.0967 0006555 310.1862  49.8552 15.48905907561822
CSS (TIANHE)            
1 48274U 21035A   26104.14683642  .00015982  00000+0  17868-3 0  9990
2 48274  41.4686 352.1325 0005452 204.5875 155.4705 15.62370155283155
HTV-X1                  
1 66174U 25241A   26103.60300693  .00003702  00000+0  12725-3 0  9998
2 66174  51.6352 264.7214 0007460 308.5367  51.4945 15.32634450 26293
SZ-21 MODULE            
1 66515U 25246C   26103.67814441  .00025378  00000+0  19523-3 0  9996
2 66515  41.4754 347.5224 0004429 266.9683  93.0653 15.71400343 23577
POISK                   
1 36086U 09060A   26104.13467087  .00005375  00000+0  10597-3 0  9991
2 36086  51.6322 257.0967 0006555 310.1862  49.8552 15.48905907561498
ISS (NAUKA)             
1 49044U 21066A   26104.13467087  .00005375  00000+0  10597-3 0  9999
2 49044  51.6322 257.0967 0006555 310.1862  49.8552 15.48905907561531
FREGAT DEB              
1 49271U 11037PF  26104.29072134 -.00000041  00000+0  94244-4 0  9998
2 49271  51.6418 193.8365 0948238 141.0354 226.2877 12.40989563217110
CSS (WENTIAN)           
1 53239U 22085A   26104.14683642  .00015982  00000+0  17868-3 0  9993
2 53239  41.4686 352.1325 0005452 204.5875 155.4705 15.62370155283130
CSS (MENGTIAN)          
1 54216U 22143A   26104.14683642  .00015982  00000+0  17868-3 0  9994
2 54216  41.4686 352.1325 0005452 204.5875 155.4705 15.62370155283675
TIANZHOU-9              
1 64786U 25149A   26104.14683642  .00015982  00000+0  17868-3 0  9996
2 64786  41.4686 352.1325 0005452 204.5875 155.4705 15.62370155283678
PROGRESS-MS 32          
1 65586U 25204A   26104.13467087  .00005375  00000+0  10597-3 0  9996
2 65586  51.6322 257.0967 0006555 310.1862  49.8552 15.48905907554509
YOTSUBA-KULOVER         
1 65941U 98067XN  26103.71422997  .01589453  11783-4  97920-3 0  9997
2 65941  51.6094 232.2957 0012415 317.4064  42.5989 16.17122774 29084
BOTAN                   
1 65943U 98067XQ  26103.74688850  .01053607  69372-3  96886-3 0  9997
2 65943  51.6132 232.5563 0012024 317.4652  42.5430 16.11693379 29083
HRC MONOBLOCK CAMERA    
1 66052U 98067XR  26104.09452936  .00038232  00000+0  36684-3 0  9997
2 66052  51.6254 246.3175 0004013 276.7502  83.3037 15.66226261 27931
SHENZHOU-22             
1 66645U 25272A   26104.14683642  .00015982  00000+0  17868-3 0  9999
2 66645  41.4686 352.1325 0005452 204.5875 155.4705 15.62370155283674
SOYUZ-MS 28             
1 66664U 25275A   26104.13467087  .00005375  00000+0  10597-3 0  9992
2 66664  51.6322 257.0967 0006555 310.1862  49.8552 15.48905907561774
